<?xml version="1.0" encoding="UTF-8"?>
<ndm xmlns:xsi="http://www.w3.org/2001/XMLSchema-instance" xsi:noNamespaceSchemaLocation="https://sanaregistry.org/r/ndmxml_unqualified/ndmxml-2.0.0-master-2.0.xsd">
<omm id="CCSDS_OMM_VERS" version="2.0">
<header><CREATION_DATE/><ORIGINATOR/></header><body><segment><metadata><OBJECT_NAME>ONEWEB-0513</OBJECT_NAME><OBJECT_ID>2022-138U</OBJECT_ID><CENTER_NAME>EARTH</CENTER_NAME><REF_FRAME>TEME</REF_FRAME><TIME_SYSTEM>UTC</TIME_SYSTEM><MEAN_ELEMENT_THEORY>SGP4</MEAN_ELEMENT_THEORY></metadata><data><meanElements><EPOCH>2024-09-14T13:13:58.152000</EPOCH><MEAN_MOTION>13.19727673</MEAN_MOTION><ECCENTRICITY>.0001238</ECCENTRICITY><INCLINATION>87.9093</INCLINATION><RA_OF_ASC_NODE>72.4014</RA_OF_ASC_NODE><ARG_OF_PERICENTER>104.5045</ARG_OF_PERICENTER><MEAN_ANOMALY>255.6225</MEAN_ANOMALY></meanElements><tleParameters><EPHEMERIS_TYPE>0</EPHEMERIS_TYPE><CLASSIFICATION_TYPE>U</CLASSIFICATION_TYPE><NORAD_CAT_ID>54131</NORAD_CAT_ID><ELEMENT_SET_NO>999</ELEMENT_SET_NO><REV_AT_EPOCH>9306</REV_AT_EPOCH><BSTAR>.14395E-3</BSTAR><MEAN_MOTION_DOT>.71E-6</MEAN_MOTION_DOT><MEAN_MOTION_DDOT>0</MEAN_MOTION_DDOT></tleParameters></data></segment></body></omm>
<omm id="CCSDS_OMM_VERS" version="2.0">
<header><CREATION_DATE/><ORIGINATOR/></header><body><segment><metadata><OBJECT_NAME>ONEWEB-0514</OBJECT_NAME><OBJECT_ID>2022-138V</OBJECT_ID><CENTER_NAME>EARTH</CENTER_NAME><REF_FRAME>TEME</REF_FRAME><TIME_SYSTEM>UTC</TIME_SYSTEM><MEAN_ELEMENT_THEORY>SGP4</MEAN_ELEMENT_THEORY></metadata><data><meanElements><EPOCH>2024-09-14T12:29:40.192512</EPOCH><MEAN_MOTION>13.19723739</MEAN_MOTION><ECCENTRICITY>.0001743</ECCENTRICITY><INCLINATION>87.9088</INCLINATION><RA_OF_ASC_NODE>72.3996</RA_OF_ASC_NODE><ARG_OF_PERICENTER>88.6429</ARG_OF_PERICENTER><MEAN_ANOMALY>271.4903</MEAN_ANOMALY></meanElements><tleParameters><EPHEMERIS_TYPE>0</EPHEMERIS_TYPE><CLASSIFICATION_TYPE>U</CLASSIFICATION_TYPE><NORAD_CAT_ID>54132</NORAD_CAT_ID><ELEMENT_SET_NO>999</ELEMENT_SET_NO><REV_AT_EPOCH>9232</REV_AT_EPOCH><BSTAR>.33853E-3</BSTAR><MEAN_MOTION_DOT>.148E-5</MEAN_MOTION_DOT><MEAN_MOTION_DDOT>0</MEAN_MOTION_DDOT></tleParameters></data></segment></body></omm>
<omm id="CCSDS_OMM_VERS" version="2.0">
<header><CREATION_DATE/><ORIGINATOR/></header><body><segment><metadata><OBJECT_NAME>ONEWEB-0515</OBJECT_NAME><OBJECT_ID>2022-138W</OBJECT_ID><CENTER_NAME>EARTH</CENTER_NAME><REF_FRAME>TEME</REF_FRAME><TIME_SYSTEM>UTC</TIME_SYSTEM><MEAN_ELEMENT_THEORY>SGP4</MEAN_ELEMENT_THEORY></metadata><data><meanElements><EPOCH>2024-09-14T08:49:50.774592</EPOCH><MEAN_MOTION>13.20771946</MEAN_MOTION><ECCENTRICITY>.0002754</ECCENTRICITY><INCLINATION>87.9232</INCLINATION><RA_OF_ASC_NODE>41.8732</RA_OF_ASC_NODE><ARG_OF_PERICENTER>91.0676</ARG_OF_PERICENTER><MEAN_ANOMALY>269.0773</MEAN_ANOMALY></meanElements><tleParameters><EPHEMERIS_TYPE>0</EPHEMERIS_TYPE><CLASSIFICATION_TYPE>U</CLASSIFICATION_TYPE><NORAD_CAT_ID>54133</NORAD_CAT_ID><ELEMENT_SET_NO>999</ELEMENT_SET_NO><REV_AT_EPOCH>9471</REV_AT_EPOCH><BSTAR>.10684E-3</BSTAR><MEAN_MOTION_DOT>.56E-6</MEAN_MOTION_DOT><MEAN_MOTION_DDOT>0</MEAN_MOTION_DDOT></tleParameters></data></segment></body></omm>
<omm id="CCSDS_OMM_VERS" version="2.0">
<header><CREATION_DATE/><ORIGINATOR/></header><body><segment><metadata><OBJECT_NAME>ONEWEB-0516</OBJECT_NAME><OBJECT_ID>2022-138X</OBJECT_ID><CENTER_NAME>EARTH</CENTER_NAME><REF_FRAME>TEME</REF_FRAME><TIME_SYSTEM>UTC</TIME_SYSTEM><MEAN_ELEMENT_THEORY>SGP4</MEAN_ELEMENT_THEORY></metadata><data><meanElements><EPOCH>2024-09-14T13:42:26.620416</EPOCH><MEAN_MOTION>13.19724149</MEAN_MOTION><ECCENTRICITY>.0001796</ECCENTRICITY><INCLINATION>87.9099</INCLINATION><RA_OF_ASC_NODE>72.4069</RA_OF_ASC_NODE><ARG_OF_PERICENTER>93.0200</ARG_OF_PERICENTER><MEAN_ANOMALY>267.1139</MEAN_ANOMALY></meanElements><tleParameters><EPHEMERIS_TYPE>0</EPHEMERIS_TYPE><CLASSIFICATION_TYPE>U</CLASSIFICATION_TYPE><NORAD_CAT_ID>54134</NORAD_CAT_ID><ELEMENT_SET_NO>999</ELEMENT_SET_NO><REV_AT_EPOCH>9233</REV_AT_EPOCH><BSTAR>.27985E-3</BSTAR><MEAN_MOTION_DOT>.125E-5</MEAN_MOTION_DOT><MEAN_MOTION_DDOT>0</MEAN_MOTION_DDOT></tleParameters></data></segment></body></omm>
<omm id="CCSDS_OMM_VERS" version="2.0">
<header><CREATION_DATE/><ORIGINATOR/></header><body><segment><metadata><OBJECT_NAME>ONEWEB-0517</OBJECT_NAME><OBJECT_ID>2022-138Y</OBJECT_ID><CENTER_NAME>EARTH</CENTER_NAME><REF_FRAME>TEME</REF_FRAME><TIME_SYSTEM>UTC</TIME_SYSTEM><MEAN_ELEMENT_THEORY>SGP4</MEAN_ELEMENT_THEORY></metadata><data><meanElements><EPOCH>2024-09-14T13:12:51.051168</EPOCH><MEAN_MOTION>13.19726847</MEAN_MOTION><ECCENTRICITY>.0001447</ECCENTRICITY><INCLINATION>87.9089</INCLINATION><RA_OF_ASC_NODE>72.3897</RA_OF_ASC_NODE><ARG_OF_PERICENTER>80.7376</ARG_OF_PERICENTER><MEAN_ANOMALY>279.3920</MEAN_ANOMALY></meanElements><tleParameters><EPHEMERIS_TYPE>0</EPHEMERIS_TYPE><CLASSIFICATION_TYPE>U</CLASSIFICATION_TYPE><NORAD_CAT_ID>54135</NORAD_CAT_ID><ELEMENT_SET_NO>999</ELEMENT_SET_NO><REV_AT_EPOCH>9320</REV_AT_EPOCH><BSTAR>.31174E-3</BSTAR><MEAN_MOTION_DOT>.138E-5</MEAN_MOTION_DOT><MEAN_MOTION_DDOT>0</MEAN_MOTION_DDOT></tleParameters></data></segment></body></omm>
<omm id="CCSDS_OMM_VERS" version="2.0">
<header><CREATION_DATE/><ORIGINATOR/></header><body><segment><metadata><OBJECT_NAME>ONEWEB-0518</OBJECT_NAME><OBJECT_ID>2022-138Z</OBJECT_ID><CENTER_NAME>EARTH</CENTER_NAME><REF_FRAME>TEME</REF_FRAME><TIME_SYSTEM>UTC</TIME_SYSTEM><MEAN_ELEMENT_THEORY>SGP4</MEAN_ELEMENT_THEORY></metadata><data><meanElements><EPOCH>2024-09-14T13:40:10.411680</EPOCH><MEAN_MOTION>13.19722798</MEAN_MOTION><ECCENTRICITY>.000162</ECCENTRICITY><INCLINATION>87.9096</INCLINATION><RA_OF_ASC_NODE>72.4047</RA_OF_ASC_NODE><ARG_OF_PERICENTER>89.2326</ARG_OF_PERICENTER><MEAN_ANOMALY>270.8993</MEAN_ANOMALY></meanElements><tleParameters><EPHEMERIS_TYPE>0</EPHEMERIS_TYPE><CLASSIFICATION_TYPE>U</CLASSIFICATION_TYPE><NORAD_CAT_ID>54136</NORAD_CAT_ID><ELEMENT_SET_NO>999</ELEMENT_SET_NO><REV_AT_EPOCH>9233</REV_AT_EPOCH><BSTAR>.65897E-4</BSTAR><MEAN_MOTION_DOT>.39E-6</MEAN_MOTION_DOT><MEAN_MOTION_DDOT>0</MEAN_MOTION_DDOT></tleParameters></data></segment></body></omm>
<omm id="CCSDS_OMM_VERS" version="2.0">
<header><CREATION_DATE/><ORIGINATOR/></header><body><segment><metadata><OBJECT_NAME>ONEWEB-0519</OBJECT_NAME><OBJECT_ID>2022-138AA</OBJECT_ID><CENTER_NAME>EARTH</CENTER_NAME><REF_FRAME>TEME</REF_FRAME><TIME_SYSTEM>UTC</TIME_SYSTEM><MEAN_ELEMENT_THEORY>SGP4</MEAN_ELEMENT_THEORY></metadata><data><meanElements><EPOCH>2024-09-14T12:27:19.374336</EPOCH><MEAN_MOTION>13.19732429</MEAN_MOTION><ECCENTRICITY>.0001491</ECCENTRICITY><INCLINATION>87.9088</INCLINATION><RA_OF_ASC_NODE>72.3903</RA_OF_ASC_NODE><ARG_OF_PERICENTER>90.5709</ARG_OF_PERICENTER><MEAN_ANOMALY>269.5595</MEAN_ANOMALY></meanElements><tleParameters><EPHEMERIS_TYPE>0</EPHEMERIS_TYPE><CLASSIFICATION_TYPE>U</CLASSIFICATION_TYPE><NORAD_CAT_ID>54137</NORAD_CAT_ID><ELEMENT_SET_NO>999</ELEMENT_SET_NO><REV_AT_EPOCH>9233</REV_AT_EPOCH><BSTAR>-.57365E-2</BSTAR><MEAN_MOTION_DOT>-.2283E-4</MEAN_MOTION_DOT><MEAN_MOTION_DDOT>0</MEAN_MOTION_DDOT></tleParameters></data></segment></body></omm>
<omm id="CCSDS_OMM_VERS" version="2.0">
<header><CREATION_DATE/><ORIGINATOR/></header><body><segment><metadata><OBJECT_NAME>ONEWEB-0520</OBJECT_NAME><OBJECT_ID>2022-138AB</OBJECT_ID><CENTER_NAME>EARTH</CENTER_NAME><REF_FRAME>TEME</REF_FRAME><TIME_SYSTEM>UTC</TIME_SYSTEM><MEAN_ELEMENT_THEORY>SGP4</MEAN_ELEMENT_THEORY></metadata><data><meanElements><EPOCH>2024-09-14T13:17:25.341792</EPOCH><MEAN_MOTION>13.19733287</MEAN_MOTION><ECCENTRICITY>.0001629</ECCENTRICITY><INCLINATION>87.9090</INCLINATION><RA_OF_ASC_NODE>72.3871</RA_OF_ASC_NODE><ARG_OF_PERICENTER>106.4814</ARG_OF_PERICENTER><MEAN_ANOMALY>253.6498</MEAN_ANOMALY></meanElements><tleParameters><EPHEMERIS_TYPE>0</EPHEMERIS_TYPE><CLASSIFICATION_TYPE>U</CLASSIFICATION_TYPE><NORAD_CAT_ID>54138</NORAD_CAT_ID><ELEMENT_SET_NO>999</ELEMENT_SET_NO><REV_AT_EPOCH>9232</REV_AT_EPOCH><BSTAR>.15583E-3</BSTAR><MEAN_MOTION_DOT>.75E-6</MEAN_MOTION_DOT><MEAN_MOTION_DDOT>0</MEAN_MOTION_DDOT></tleParameters></data></segment></body></omm>
<omm id="CCSDS_OMM_VERS" version="2.0">
<header><CREATION_DATE/><ORIGINATOR/></header><body><segment><metadata><OBJECT_NAME>ONEWEB-0521</OBJECT_NAME><OBJECT_ID>2022-138AC</OBJECT_ID><CENTER_NAME>EARTH</CENTER_NAME><REF_FRAME>TEME</REF_FRAME><TIME_SYSTEM>UTC</TIME_SYSTEM><MEAN_ELEMENT_THEORY>SGP4</MEAN_ELEMENT_THEORY></metadata><data><meanElements><EPOCH>2024-09-14T12:16:00.897600</EPOCH><MEAN_MOTION>13.19727545</MEAN_MOTION><ECCENTRICITY>.0001692</ECCENTRICITY><INCLINATION>87.9088</INCLINATION><RA_OF_ASC_NODE>72.3869</RA_OF_ASC_NODE><ARG_OF_PERICENTER>82.2726</ARG_OF_PERICENTER><MEAN_ANOMALY>277.8599</MEAN_ANOMALY></meanElements><tleParameters><EPHEMERIS_TYPE>0</EPHEMERIS_TYPE><CLASSIFICATION_TYPE>U</CLASSIFICATION_TYPE><NORAD_CAT_ID>54139</NORAD_CAT_ID><ELEMENT_SET_NO>999</ELEMENT_SET_NO><REV_AT_EPOCH>9226</REV_AT_EPOCH><BSTAR>.20019E-3</BSTAR><MEAN_MOTION_DOT>.93E-6</MEAN_MOTION_DOT><MEAN_MOTION_DDOT>0</MEAN_MOTION_DDOT></tleParameters></data></segment></body></omm>

</ndm>
